XRISM                   
1 57800U 23137A   23283.75822211  .00007901  00000+0  64336-3 0  9993
2 57800  31.0028 162.8020 0010402 252.0420 107.9081 14.98185350  5068
